[{"OBJECT_NAME":"UNKNOWN","OBJECT_ID":"","EPOCH":"2026-03-07T15:14:41.564256","MEAN_MOTION":13.5413212,"ECCENTRICITY":0.0691594,"INCLINATION":65.6692,"RA_OF_ASC_NODE":150.3342,"ARG_OF_PERICENTER":189.8468,"MEAN_ANOMALY":168.843,"EPHEMERIS_TYPE":0,"CLASSIFICATION_TYPE":"U","NORAD_CAT_ID":87553,"ELEMENT_SET_NO":999,"REV_AT_EPOCH":60274,"BSTAR":0.0016336,"MEAN_MOTION_DOT":5.279e-5,"MEAN_MOTION_DDOT":0},{"OBJECT_NAME":"UNKNOWN","OBJECT_ID":"","EPOCH":"2026-03-05T09:20:12.771744","MEAN_MOTION":13.28525902,"ECCENTRICITY":0.0056329,"INCLINATION":101.7694,"RA_OF_ASC_NODE":295.7909,"ARG_OF_PERICENTER":205.6124,"MEAN_ANOMALY":154.2198,"EPHEMERIS_TYPE":0,"CLASSIFICATION_TYPE":"U","NORAD_CAT_ID":87557,"ELEMENT_SET_NO":999,"REV_AT_EPOCH":57600,"BSTAR":0.010149,"MEAN_MOTION_DOT":4.626e-5,"MEAN_MOTION_DDOT":0},{"OBJECT_NAME":"UNKNOWN","OBJECT_ID":"","EPOCH":"2026-03-07T09:32:49.258176","MEAN_MOTION":12.32165823,"ECCENTRICITY":0.0175812,"INCLINATION":101.9954,"RA_OF_ASC_NODE":126.5538,"ARG_OF_PERICENTER":138.4267,"MEAN_ANOMALY":289.5591,"EPHEMERIS_TYPE":0,"CLASSIFICATION_TYPE":"U","NORAD_CAT_ID":87561,"ELEMENT_SET_NO":999,"REV_AT_EPOCH":55286,"BSTAR":-4.3127e-5,"MEAN_MOTION_DOT":-4.8e-7,"MEAN_MOTION_DDOT":0},{"OBJECT_NAME":"UNKNOWN","OBJECT_ID":"","EPOCH":"2026-02-27T10:38:32.985312","MEAN_MOTION":14.06233624,"ECCENTRICITY":0.0171258,"INCLINATION":99.9521,"RA_OF_ASC_NODE":62.5801,"ARG_OF_PERICENTER":323.4628,"MEAN_ANOMALY":35.4951,"EPHEMERIS_TYPE":0,"CLASSIFICATION_TYPE":"U","NORAD_CAT_ID":87565,"ELEMENT_SET_NO":999,"REV_AT_EPOCH":62721,"BSTAR":0.00084316,"MEAN_MOTION_DOT":1.532e-5,"MEAN_MOTION_DDOT":0},{"OBJECT_NAME":"UNKNOWN","OBJECT_ID":"","EPOCH":"2026-03-07T08:20:39.231456","MEAN_MOTION":12.68544239,"ECCENTRICITY":0.005578,"INCLINATION":101.995,"RA_OF_ASC_NODE":251.9692,"ARG_OF_PERICENTER":87.5501,"MEAN_ANOMALY":33.4037,"EPHEMERIS_TYPE":0,"CLASSIFICATION_TYPE":"U","NORAD_CAT_ID":87569,"ELEMENT_SET_NO":999,"REV_AT_EPOCH":56919,"BSTAR":6.2606e-5,"MEAN_MOTION_DOT":-3.6e-7,"MEAN_MOTION_DDOT":0},{"OBJECT_NAME":"UNKNOWN","OBJECT_ID":"","EPOCH":"2026-03-07T01:36:04.736736","MEAN_MOTION":14.10450488,"ECCENTRICITY":0.0027179,"INCLINATION":98.7766,"RA_OF_ASC_NODE":106.2345,"ARG_OF_PERICENTER":47.6574,"MEAN_ANOMALY":342.9256,"EPHEMERIS_TYPE":0,"CLASSIFICATION_TYPE":"U","NORAD_CAT_ID":87590,"ELEMENT_SET_NO":999,"REV_AT_EPOCH":16613,"BSTAR":0.00034434,"MEAN_MOTION_DOT":5.72e-6,"MEAN_MOTION_DDOT":0},{"OBJECT_NAME":"UNKNOWN","OBJECT_ID":"","EPOCH":"2026-03-06T18:40:33.580416","MEAN_MOTION":12.46981922,"ECCENTRICITY":0.0626709,"INCLINATION":66.0382,"RA_OF_ASC_NODE":343.3099,"ARG_OF_PERICENTER":102.6078,"MEAN_ANOMALY":296.1715,"EPHEMERIS_TYPE":0,"CLASSIFICATION_TYPE":"U","NORAD_CAT_ID":87616,"ELEMENT_SET_NO":999,"REV_AT_EPOCH":54671,"BSTAR":0.0055186,"MEAN_MOTION_DOT":1.58e-5,"MEAN_MOTION_DDOT":0},{"OBJECT_NAME":"UNKNOWN","OBJECT_ID":"","EPOCH":"2026-03-07T07:02:24.809280","MEAN_MOTION":14.7121591,"ECCENTRICITY":0.0096116,"INCLINATION":98.6898,"RA_OF_ASC_NODE":14.2162,"ARG_OF_PERICENTER":344.9079,"MEAN_ANOMALY":14.9262,"EPHEMERIS_TYPE":0,"CLASSIFICATION_TYPE":"U","NORAD_CAT_ID":87624,"ELEMENT_SET_NO":999,"REV_AT_EPOCH":59270,"BSTAR":0.0019102,"MEAN_MOTION_DOT":0.00012615,"MEAN_MOTION_DDOT":0},{"OBJECT_NAME":"UNKNOWN","OBJECT_ID":"","EPOCH":"2026-02-08T08:21:58.574304","MEAN_MOTION":14.63453892,"ECCENTRICITY":0.0030195,"INCLINATION":100.2708,"RA_OF_ASC_NODE":233.5291,"ARG_OF_PERICENTER":112.3966,"MEAN_ANOMALY":248.0433,"EPHEMERIS_TYPE":0,"CLASSIFICATION_TYPE":"U","NORAD_CAT_ID":87650,"ELEMENT_SET_NO":999,"REV_AT_EPOCH":8818,"BSTAR":0.0025279,"MEAN_MOTION_DOT":0.00013131,"MEAN_MOTION_DDOT":0},{"OBJECT_NAME":"UNKNOWN","OBJECT_ID":"","EPOCH":"2026-03-06T16:38:24.194976","MEAN_MOTION":14.28277543,"ECCENTRICITY":0.0056587,"INCLINATION":70.8585,"RA_OF_ASC_NODE":185.2252,"ARG_OF_PERICENTER":146.7839,"MEAN_ANOMALY":213.6863,"EPHEMERIS_TYPE":0,"CLASSIFICATION_TYPE":"U","NORAD_CAT_ID":87672,"ELEMENT_SET_NO":999,"REV_AT_EPOCH":63644,"BSTAR":0.0011431,"MEAN_MOTION_DOT":2.853e-5,"MEAN_MOTION_DDOT":0},{"OBJECT_NAME":"UNKNOWN","OBJECT_ID":"","EPOCH":"2026-03-06T12:28:08.817600","MEAN_MOTION":13.71322076,"ECCENTRICITY":0.0150241,"INCLINATION":66.7351,"RA_OF_ASC_NODE":260.2039,"ARG_OF_PERICENTER":104.848,"MEAN_ANOMALY":256.9284,"EPHEMERIS_TYPE":0,"CLASSIFICATION_TYPE":"U","NORAD_CAT_ID":87681,"ELEMENT_SET_NO":999,"REV_AT_EPOCH":61332,"BSTAR":0.0014228,"MEAN_MOTION_DOT":1.312e-5,"MEAN_MOTION_DDOT":0},{"OBJECT_NAME":"UNKNOWN","OBJECT_ID":"","EPOCH":"2026-03-06T14:00:24.168384","MEAN_MOTION":14.0147313,"ECCENTRICITY":0.058168,"INCLINATION":65.791,"RA_OF_ASC_NODE":135.823,"ARG_OF_PERICENTER":4.4709,"MEAN_ANOMALY":356.1247,"EPHEMERIS_TYPE":0,"CLASSIFICATION_TYPE":"U","NORAD_CAT_ID":87690,"ELEMENT_SET_NO":999,"REV_AT_EPOCH":61912,"BSTAR":0.00083709,"MEAN_MOTION_DOT":5.753e-5,"MEAN_MOTION_DDOT":0},{"OBJECT_NAME":"UNKNOWN","OBJECT_ID":"","EPOCH":"2026-03-07T08:07:22.078272","MEAN_MOTION":14.6529576,"ECCENTRICITY":0.0103622,"INCLINATION":98.6757,"RA_OF_ASC_NODE":259.5239,"ARG_OF_PERICENTER":5.8111,"MEAN_ANOMALY":118.0017,"EPHEMERIS_TYPE":0,"CLASSIFICATION_TYPE":"U","NORAD_CAT_ID":87706,"ELEMENT_SET_NO":999,"REV_AT_EPOCH":59090,"BSTAR":0.00076124,"MEAN_MOTION_DOT":4.386e-5,"MEAN_MOTION_DDOT":0},{"OBJECT_NAME":"UNKNOWN","OBJECT_ID":"","EPOCH":"2026-03-06T17:29:08.684736","MEAN_MOTION":15.09290891,"ECCENTRICITY":0.0009078,"INCLINATION":82.8688,"RA_OF_ASC_NODE":178.5738,"ARG_OF_PERICENTER":172.517,"MEAN_ANOMALY":187.6198,"EPHEMERIS_TYPE":0,"CLASSIFICATION_TYPE":"U","NORAD_CAT_ID":87725,"ELEMENT_SET_NO":999,"REV_AT_EPOCH":64653,"BSTAR":0.0066082,"MEAN_MOTION_DOT":0.00106821,"MEAN_MOTION_DDOT":0},{"OBJECT_NAME":"UNKNOWN","OBJECT_ID":"","EPOCH":"2026-03-02T14:10:10.176384","MEAN_MOTION":13.74520605,"ECCENTRICITY":0.0031038,"INCLINATION":82.9487,"RA_OF_ASC_NODE":175.0298,"ARG_OF_PERICENTER":139.856,"MEAN_ANOMALY":220.4897,"EPHEMERIS_TYPE":0,"CLASSIFICATION_TYPE":"U","NORAD_CAT_ID":87730,"ELEMENT_SET_NO":999,"REV_AT_EPOCH":59630,"BSTAR":8.34e-5,"MEAN_MOTION_DOT":9.5e-7,"MEAN_MOTION_DDOT":0},{"OBJECT_NAME":"UNKNOWN","OBJECT_ID":"","EPOCH":"2026-03-02T02:20:14.646336","MEAN_MOTION":13.72355923,"ECCENTRICITY":0.0133008,"INCLINATION":99.367,"RA_OF_ASC_NODE":296.1418,"ARG_OF_PERICENTER":343.1811,"MEAN_ANOMALY":16.4948,"EPHEMERIS_TYPE":0,"CLASSIFICATION_TYPE":"U","NORAD_CAT_ID":87737,"ELEMENT_SET_NO":999,"REV_AT_EPOCH":61474,"BSTAR":9.5584e-5,"MEAN_MOTION_DOT":4.9e-7,"MEAN_MOTION_DDOT":0},{"OBJECT_NAME":"UNKNOWN","OBJECT_ID":"","EPOCH":"2026-03-06T14:51:47.240064","MEAN_MOTION":14.36472658,"ECCENTRICITY":0.0359574,"INCLINATION":65.6711,"RA_OF_ASC_NODE":291.3001,"ARG_OF_PERICENTER":32.8315,"MEAN_ANOMALY":358.3842,"EPHEMERIS_TYPE":0,"CLASSIFICATION_TYPE":"U","NORAD_CAT_ID":87764,"ELEMENT_SET_NO":999,"REV_AT_EPOCH":63116,"BSTAR":0.0016556,"MEAN_MOTION_DOT":0.00010178,"MEAN_MOTION_DDOT":0}]
