UNKNOWN                 
1 87553U          26066.63520329  .00005279  00000+0  16336-2 0  9991
2 87553  65.6692 150.3342 0691594 189.8468 168.8430 13.54132120602741
UNKNOWN                 
1 87557U          26064.38903671  .00004626  00000+0  10149-1 0  9990
2 87557 101.7694 295.7909 0056329 205.6124 154.2198 13.28525902576003
UNKNOWN                 
1 87561U          26066.39779234 -.00000048  00000+0 -43127-4 0  9995
2 87561 101.9954 126.5538 0175812 138.4267 289.5591 12.32165823552861
UNKNOWN                 
1 87565U          26058.44343733  .00001532  00000+0  84316-3 0  9998
2 87565  99.9521  62.5801 0171258 323.4628  35.4951 14.06233624627218
UNKNOWN                 
1 87569U          26066.34767629 -.00000036  00000+0  62606-4 0  9992
2 87569 101.9950 251.9692 0055780  87.5501  33.4037 12.68544239569191
UNKNOWN                 
1 87590U          26066.06672149  .00000572  00000+0  34434-3 0  9998
2 87590  98.7766 106.2345 0027179  47.6574 342.9256 14.10450488166137
UNKNOWN                 
1 87616U          26065.77816644  .00001580  00000+0  55186-2 0  9990
2 87616  66.0382 343.3099 0626709 102.6078 296.1715 12.46981922546718
UNKNOWN                 
1 87624U          26066.29334270  .00012615  00000+0  19102-2 0  9996
2 87624  98.6898  14.2162 0096116 344.9079  14.9262 14.71215910592700
UNKNOWN                 
1 87650U          26039.34859461  .00013131  00000+0  25279-2 0  9991
2 87650 100.2708 233.5291 0030195 112.3966 248.0433 14.63453892 88181
UNKNOWN                 
1 87672U          26065.69333559  .00002853  00000+0  11431-2 0  9991
2 87672  70.8585 185.2252 0056587 146.7839 213.6863 14.28277543636444
UNKNOWN                 
1 87681U          26065.51954650  .00001312  00000+0  14228-2 0  9999
2 87681  66.7351 260.2039 0150241 104.8480 256.9284 13.71322076613323
UNKNOWN                 
1 87690U          26065.58361306  .00005753  00000+0  83709-3 0  9990
2 87690  65.7910 135.8230 0581680   4.4709 356.1247 14.01473130619125
UNKNOWN                 
1 87706U          26066.33844998  .00004386  00000+0  76124-3 0  9999
2 87706  98.6757 259.5239 0103622   5.8111 118.0017 14.65295760590903
UNKNOWN                 
1 87725U          26065.72857274  .00106821  00000+0  66082-2 0  9991
2 87725  82.8688 178.5738 0009078 172.5170 187.6198 15.09290891646535
UNKNOWN                 
1 87730U          26061.59039556  .00000095  00000+0  83400-4 0  9994
2 87730  82.9487 175.0298 0031038 139.8560 220.4897 13.74520605596302
UNKNOWN                 
1 87737U          26061.09739174  .00000049  00000+0  95584-4 0  9994
2 87737  99.3670 296.1418 0133008 343.1811  16.4948 13.72355923614749
UNKNOWN                 
1 87764U          26065.61929676  .00010178  00000+0  16556-2 0  9998
2 87764  65.6711 291.3001 0359574  32.8315 358.3842 14.36472658631167
